MC1    ?    Z    ? P      ? 20080421 0758 48.4200 GAU  1.00e-02 -1.00e+00 -1.00e+00 -1.00e+00
MC2    ?    Z    ? P      ? 20080421 0758 48.8600 GAU  1.00e-02 -1.00e+00 -1.00e+00 -1.00e+00
MC4    ?    Z    ? P      ? 20080421 0758 48.9800 GAU  1.00e-02 -1.00e+00 -1.00e+00 -1.00e+00
MC5    ?    Z    ? P      ? 20080421 0758 48.8200 GAU  1.00e-02 -1.00e+00 -1.00e+00 -1.00e+00
