MC1    ?    Z    ? P      ? 20080421 0010 42.0300 GAU  1.00e-02 -1.00e+00 -1.00e+00 -1.00e+00
MC2    ?    Z    ? P      ? 20080421 0010 40.9300 GAU  1.00e-02 -1.00e+00 -1.00e+00 -1.00e+00
MC4    ?    Z    ? P      ? 20080421 0010 40.6200 GAU  1.00e-02 -1.00e+00 -1.00e+00 -1.00e+00
MC5    ?    Z    ? P      ? 20080421 0010 40.2900 GAU  1.00e-02 -1.00e+00 -1.00e+00 -1.00e+00
