MC1    ?    Z    ? P      ? 20080421 0906 46.2900 GAU  1.00e-02 -1.00e+00 -1.00e+00 -1.00e+00
MC2    ?    Z    ? P      ? 20080421 0906 46.7400 GAU  1.00e-02 -1.00e+00 -1.00e+00 -1.00e+00
MC4    ?    Z    ? P      ? 20080421 0906 46.6800 GAU  1.00e-02 -1.00e+00 -1.00e+00 -1.00e+00
MC5    ?    Z    ? P      ? 20080421 0906 46.5200 GAU  1.00e-02 -1.00e+00 -1.00e+00 -1.00e+00
