MC1    ?    Z    ? P      ? 20080421 0945 14.4400 GAU  1.00e-02 -1.00e+00 -1.00e+00 -1.00e+00
MC2    ?    Z    ? P      ? 20080421 0945 14.9700 GAU  1.00e-02 -1.00e+00 -1.00e+00 -1.00e+00
MC4    ?    Z    ? P      ? 20080421 0945 14.9600 GAU  1.00e-02 -1.00e+00 -1.00e+00 -1.00e+00
MC5    ?    Z    ? P      ? 20080421 0945 14.9600 GAU  1.00e-02 -1.00e+00 -1.00e+00 -1.00e+00
