MC1    ?    Z    ? P      ? 20080421 1012 33.5200 GAU  1.00e-02 -1.00e+00 -1.00e+00 -1.00e+00
MC2    ?    Z    ? P      ? 20080421 1012 33.9800 GAU  1.00e-02 -1.00e+00 -1.00e+00 -1.00e+00
MC4    ?    Z    ? P      ? 20080421 1012 34.0600 GAU  1.00e-02 -1.00e+00 -1.00e+00 -1.00e+00
MC5    ?    Z    ? P      ? 20080421 1012 33.9600 GAU  1.00e-02 -1.00e+00 -1.00e+00 -1.00e+00
