MC1    ?    Z    ? P      ? 20080421 1037 20.3700 GAU  1.00e-02 -1.00e+00 -1.00e+00 -1.00e+00
MC2    ?    Z    ? P      ? 20080421 1037 20.8500 GAU  1.00e-02 -1.00e+00 -1.00e+00 -1.00e+00
MC4    ?    Z    ? P      ? 20080421 1037 20.6500 GAU  1.00e-02 -1.00e+00 -1.00e+00 -1.00e+00
MC5    ?    Z    ? P      ? 20080421 1037 20.7700 GAU  1.00e-02 -1.00e+00 -1.00e+00 -1.00e+00
