MC1    ?    Z    ? P      ? 20080421 1131 34.8000 GAU  1.00e-02 -1.00e+00 -1.00e+00 -1.00e+00
MC2    ?    Z    ? P      ? 20080421 1131 35.3400 GAU  1.00e-02 -1.00e+00 -1.00e+00 -1.00e+00
MC4    ?    Z    ? P      ? 20080421 1131 35.3100 GAU  1.00e-02 -1.00e+00 -1.00e+00 -1.00e+00
MC5    ?    Z    ? P      ? 20080421 1131 35.1600 GAU  1.00e-02 -1.00e+00 -1.00e+00 -1.00e+00
