MC1    ?    Z    ? P      ? 20080421 1507 16.4000 GAU  1.00e-02 -1.00e+00 -1.00e+00 -1.00e+00
MC2    ?    Z    ? P      ? 20080421 1507 16.5500 GAU  1.00e-02 -1.00e+00 -1.00e+00 -1.00e+00
MC4    ?    Z    ? P      ? 20080421 1507 16.8800 GAU  1.00e-02 -1.00e+00 -1.00e+00 -1.00e+00
MC5    ?    Z    ? P      ? 20080421 1507 18.0200 GAU  1.00e-02 -1.00e+00 -1.00e+00 -1.00e+00
