MC1    ?    Z    ? P      ? 20080421 1739 35.8500 GAU  1.00e-02 -1.00e+00 -1.00e+00 -1.00e+00
MC2    ?    Z    ? P      ? 20080421 1739 36.3400 GAU  1.00e-02 -1.00e+00 -1.00e+00 -1.00e+00
MC4    ?    Z    ? P      ? 20080421 1739 36.3800 GAU  1.00e-02 -1.00e+00 -1.00e+00 -1.00e+00
MC5    ?    Z    ? P      ? 20080421 1739 36.3100 GAU  1.00e-02 -1.00e+00 -1.00e+00 -1.00e+00
