MC1    ?    Z    ? P      ? 20080421 1826 38.1500 GAU  1.00e-02 -1.00e+00 -1.00e+00 -1.00e+00
MC2    ?    Z    ? P      ? 20080421 1826 38.6000 GAU  1.00e-02 -1.00e+00 -1.00e+00 -1.00e+00
MC4    ?    Z    ? P      ? 20080421 1826 38.6900 GAU  1.00e-02 -1.00e+00 -1.00e+00 -1.00e+00
MC5    ?    Z    ? P      ? 20080421 1826 38.5500 GAU  1.00e-02 -1.00e+00 -1.00e+00 -1.00e+00
