MC1    ?    Z    ? P      ? 20080421 1908 26.6100 GAU  1.00e-02 -1.00e+00 -1.00e+00 -1.00e+00
MC2    ?    Z    ? P      ? 20080421 1908 27.1200 GAU  1.00e-02 -1.00e+00 -1.00e+00 -1.00e+00
MC4    ?    Z    ? P      ? 20080421 1908 27.2500 GAU  1.00e-02 -1.00e+00 -1.00e+00 -1.00e+00
MC5    ?    Z    ? P      ? 20080421 1908 27.2200 GAU  1.00e-02 -1.00e+00 -1.00e+00 -1.00e+00
