MC1    ?    Z    ? P      ? 20080421 2003 58.3300 GAU  1.00e-02 -1.00e+00 -1.00e+00 -1.00e+00
MC2    ?    Z    ? P      ? 20080421 2003 58.9800 GAU  1.00e-02 -1.00e+00 -1.00e+00 -1.00e+00
MC4    ?    Z    ? P      ? 20080421 2003 58.9100 GAU  1.00e-02 -1.00e+00 -1.00e+00 -1.00e+00
MC5    ?    Z    ? P      ? 20080421 2003 59.0400 GAU  1.00e-02 -1.00e+00 -1.00e+00 -1.00e+00
