MC1    ?    Z    ? P      ? 20080421 0045 21.7100 GAU  1.00e-02 -1.00e+00 -1.00e+00 -1.00e+00
MC2    ?    Z    ? P      ? 20080421 0045 21.8200 GAU  1.00e-02 -1.00e+00 -1.00e+00 -1.00e+00
MC4    ?    Z    ? P      ? 20080421 0045 22.4800 GAU  1.00e-02 -1.00e+00 -1.00e+00 -1.00e+00
MC5    ?    Z    ? P      ? 20080421 0045 21.9100 GAU  1.00e-02 -1.00e+00 -1.00e+00 -1.00e+00
