MC1    ?    Z    ? P      ? 20080421 2134 27.0600 GAU  1.00e-02 -1.00e+00 -1.00e+00 -1.00e+00
MC2    ?    Z    ? P      ? 20080421 2134 27.3100 GAU  1.00e-02 -1.00e+00 -1.00e+00 -1.00e+00
MC4    ?    Z    ? P      ? 20080421 2134 25.6900 GAU  1.00e-02 -1.00e+00 -1.00e+00 -1.00e+00
MC5    ?    Z    ? P      ? 20080421 2134 25.6400 GAU  1.00e-02 -1.00e+00 -1.00e+00 -1.00e+00
