MC1    ?    Z    ? P      ? 20080421 2137 56.0200 GAU  1.00e-02 -1.00e+00 -1.00e+00 -1.00e+00
MC2    ?    Z    ? P      ? 20080421 2137 56.5300 GAU  1.00e-02 -1.00e+00 -1.00e+00 -1.00e+00
MC4    ?    Z    ? P      ? 20080421 2137 56.4700 GAU  1.00e-02 -1.00e+00 -1.00e+00 -1.00e+00
MC5    ?    Z    ? P      ? 20080421 2137 58.0500 GAU  1.00e-02 -1.00e+00 -1.00e+00 -1.00e+00
