MC1    ?    Z    ? P      ? 20080421 2157  3.0800 GAU  1.00e-02 -1.00e+00 -1.00e+00 -1.00e+00
MC2    ?    Z    ? P      ? 20080421 2157  3.5700 GAU  1.00e-02 -1.00e+00 -1.00e+00 -1.00e+00
MC4    ?    Z    ? P      ? 20080421 2157  3.6900 GAU  1.00e-02 -1.00e+00 -1.00e+00 -1.00e+00
MC5    ?    Z    ? P      ? 20080421 2157  3.6400 GAU  1.00e-02 -1.00e+00 -1.00e+00 -1.00e+00
