MC1    ?    Z    ? P      ? 20080421 2302 18.6500 GAU  1.00e-02 -1.00e+00 -1.00e+00 -1.00e+00
MC2    ?    Z    ? P      ? 20080421 2302 19.2200 GAU  1.00e-02 -1.00e+00 -1.00e+00 -1.00e+00
MC4    ?    Z    ? P      ? 20080421 2302 19.2400 GAU  1.00e-02 -1.00e+00 -1.00e+00 -1.00e+00
MC5    ?    Z    ? P      ? 20080421 2302 19.1700 GAU  1.00e-02 -1.00e+00 -1.00e+00 -1.00e+00
