MC1    ?    Z    ? P      ? 20080421 2304 44.2100 GAU  1.00e-02 -1.00e+00 -1.00e+00 -1.00e+00
MC2    ?    Z    ? P      ? 20080421 2304 49.4300 GAU  1.00e-02 -1.00e+00 -1.00e+00 -1.00e+00
MC4    ?    Z    ? P      ? 20080421 2304 49.7500 GAU  1.00e-02 -1.00e+00 -1.00e+00 -1.00e+00
MC5    ?    Z    ? P      ? 20080421 2304 49.6200 GAU  1.00e-02 -1.00e+00 -1.00e+00 -1.00e+00
