MC1    ?    Z    ? P      ? 20080421 2311 22.2700 GAU  1.00e-02 -1.00e+00 -1.00e+00 -1.00e+00
MC2    ?    Z    ? P      ? 20080421 2311 22.8300 GAU  1.00e-02 -1.00e+00 -1.00e+00 -1.00e+00
MC4    ?    Z    ? P      ? 20080421 2311 23.7300 GAU  1.00e-02 -1.00e+00 -1.00e+00 -1.00e+00
MC5    ?    Z    ? P      ? 20080421 2311 22.5000 GAU  1.00e-02 -1.00e+00 -1.00e+00 -1.00e+00
