MC1    ?    Z    ? P      ? 20080421 0210  7.2900 GAU  1.00e-02 -1.00e+00 -1.00e+00 -1.00e+00
MC2    ?    Z    ? P      ? 20080421 0210  7.6100 GAU  1.00e-02 -1.00e+00 -1.00e+00 -1.00e+00
MC4    ?    Z    ? P      ? 20080421 0210  7.9400 GAU  1.00e-02 -1.00e+00 -1.00e+00 -1.00e+00
MC5    ?    Z    ? P      ? 20080421 0210  7.8500 GAU  1.00e-02 -1.00e+00 -1.00e+00 -1.00e+00
