MC1    ?    Z    ? P      ? 20080421 0234 15.6000 GAU  1.00e-02 -1.00e+00 -1.00e+00 -1.00e+00
MC2    ?    Z    ? P      ? 20080421 0234 16.0800 GAU  1.00e-02 -1.00e+00 -1.00e+00 -1.00e+00
MC4    ?    Z    ? P      ? 20080421 0234 16.1100 GAU  1.00e-02 -1.00e+00 -1.00e+00 -1.00e+00
MC5    ?    Z    ? P      ? 20080421 0234 15.9900 GAU  1.00e-02 -1.00e+00 -1.00e+00 -1.00e+00
