MC1    ?    Z    ? P      ? 20080421 0413 28.7700 GAU  1.00e-02 -1.00e+00 -1.00e+00 -1.00e+00
MC2    ?    Z    ? P      ? 20080421 0413 29.3100 GAU  1.00e-02 -1.00e+00 -1.00e+00 -1.00e+00
MC4    ?    Z    ? P      ? 20080421 0413 29.4400 GAU  1.00e-02 -1.00e+00 -1.00e+00 -1.00e+00
MC5    ?    Z    ? P      ? 20080421 0413 29.3500 GAU  1.00e-02 -1.00e+00 -1.00e+00 -1.00e+00
