MC1    ?    Z    ? P      ? 20080421 0538 33.2500 GAU  1.00e-02 -1.00e+00 -1.00e+00 -1.00e+00
MC2    ?    Z    ? P      ? 20080421 0538 33.7000 GAU  1.00e-02 -1.00e+00 -1.00e+00 -1.00e+00
MC4    ?    Z    ? P      ? 20080421 0538 33.7900 GAU  1.00e-02 -1.00e+00 -1.00e+00 -1.00e+00
MC5    ?    Z    ? P      ? 20080421 0538 33.6700 GAU  1.00e-02 -1.00e+00 -1.00e+00 -1.00e+00
