MC1    ?    Z    ? P      ? 20080421 0856 43.3600 GAU  1.00e-02 -1.00e+00 -1.00e+00 -1.00e+00
MC2    ?    Z    ? P      ? 20080421 0856 43.8300 GAU  1.00e-02 -1.00e+00 -1.00e+00 -1.00e+00
MC4    ?    Z    ? P      ? 20080421 0856 43.8800 GAU  1.00e-02 -1.00e+00 -1.00e+00 -1.00e+00
MC5    ?    Z    ? P      ? 20080421 0856 43.7900 GAU  1.00e-02 -1.00e+00 -1.00e+00 -1.00e+00
