MC1    ?    Z    ? P      ? 20080421 0859 41.7700 GAU  1.00e-02 -1.00e+00 -1.00e+00 -1.00e+00
MC2    ?    Z    ? P      ? 20080421 0859 42.1700 GAU  1.00e-02 -1.00e+00 -1.00e+00 -1.00e+00
MC4    ?    Z    ? P      ? 20080421 0859 42.3300 GAU  1.00e-02 -1.00e+00 -1.00e+00 -1.00e+00
MC5    ?    Z    ? P      ? 20080421 0859 42.2100 GAU  1.00e-02 -1.00e+00 -1.00e+00 -1.00e+00
