MC1    ?    Z    ? P      ? 20080421 1044 14.1000 GAU  1.00e-02 -1.00e+00 -1.00e+00 -1.00e+00
MC2    ?    Z    ? P      ? 20080421 1044 14.5400 GAU  1.00e-02 -1.00e+00 -1.00e+00 -1.00e+00
MC4    ?    Z    ? P      ? 20080421 1044 14.5500 GAU  1.00e-02 -1.00e+00 -1.00e+00 -1.00e+00
MC5    ?    Z    ? P      ? 20080421 1044 14.4500 GAU  1.00e-02 -1.00e+00 -1.00e+00 -1.00e+00
