MC1    ?    Z    ? P      ? 20080421 1147 17.4600 GAU  1.00e-02 -1.00e+00 -1.00e+00 -1.00e+00
MC2    ?    Z    ? P      ? 20080421 1147 18.0500 GAU  1.00e-02 -1.00e+00 -1.00e+00 -1.00e+00
MC4    ?    Z    ? P      ? 20080421 1147 17.8700 GAU  1.00e-02 -1.00e+00 -1.00e+00 -1.00e+00
MC5    ?    Z    ? P      ? 20080421 1147 17.7900 GAU  1.00e-02 -1.00e+00 -1.00e+00 -1.00e+00
