MC1    ?    Z    ? P      ? 20080421 1507 20.2800 GAU  1.00e-02 -1.00e+00 -1.00e+00 -1.00e+00
MC2    ?    Z    ? P      ? 20080421 1507 20.4100 GAU  1.00e-02 -1.00e+00 -1.00e+00 -1.00e+00
MC4    ?    Z    ? P      ? 20080421 1507 16.8600 GAU  1.00e-02 -1.00e+00 -1.00e+00 -1.00e+00
MC5    ?    Z    ? P      ? 20080421 1507 16.9200 GAU  1.00e-02 -1.00e+00 -1.00e+00 -1.00e+00
