MC1    ?    Z    ? P      ? 20080421 0037 53.0300 GAU  1.00e-02 -1.00e+00 -1.00e+00 -1.00e+00
MC2    ?    Z    ? P      ? 20080421 0037 53.4900 GAU  1.00e-02 -1.00e+00 -1.00e+00 -1.00e+00
MC4    ?    Z    ? P      ? 20080421 0037 53.7800 GAU  1.00e-02 -1.00e+00 -1.00e+00 -1.00e+00
MC5    ?    Z    ? P      ? 20080421 0037 53.7100 GAU  1.00e-02 -1.00e+00 -1.00e+00 -1.00e+00
