MC1    ?    Z    ? P      ? 20080421 1514 50.0500 GAU  1.00e-02 -1.00e+00 -1.00e+00 -1.00e+00
MC2    ?    Z    ? P      ? 20080421 1514 50.5500 GAU  1.00e-02 -1.00e+00 -1.00e+00 -1.00e+00
MC4    ?    Z    ? P      ? 20080421 1514 50.5900 GAU  1.00e-02 -1.00e+00 -1.00e+00 -1.00e+00
MC5    ?    Z    ? P      ? 20080421 1514 50.5300 GAU  1.00e-02 -1.00e+00 -1.00e+00 -1.00e+00
