MC1    ?    Z    ? P      ? 20080421 1534 46.6400 GAU  1.00e-02 -1.00e+00 -1.00e+00 -1.00e+00
MC2    ?    Z    ? P      ? 20080421 1534 47.1300 GAU  1.00e-02 -1.00e+00 -1.00e+00 -1.00e+00
MC4    ?    Z    ? P      ? 20080421 1534 46.9100 GAU  1.00e-02 -1.00e+00 -1.00e+00 -1.00e+00
MC5    ?    Z    ? P      ? 20080421 1534 46.7600 GAU  1.00e-02 -1.00e+00 -1.00e+00 -1.00e+00
