MC1    ?    Z    ? P      ? 20080421 1939 18.2800 GAU  1.00e-02 -1.00e+00 -1.00e+00 -1.00e+00
MC2    ?    Z    ? P      ? 20080421 1939 17.9000 GAU  1.00e-02 -1.00e+00 -1.00e+00 -1.00e+00
MC4    ?    Z    ? P      ? 20080421 1939 18.1900 GAU  1.00e-02 -1.00e+00 -1.00e+00 -1.00e+00
MC5    ?    Z    ? P      ? 20080421 1939 18.1200 GAU  1.00e-02 -1.00e+00 -1.00e+00 -1.00e+00
