MC1    ?    Z    ? P      ? 20080421 2020 26.4600 GAU  1.00e-02 -1.00e+00 -1.00e+00 -1.00e+00
MC2    ?    Z    ? P      ? 20080421 2020 26.8900 GAU  1.00e-02 -1.00e+00 -1.00e+00 -1.00e+00
MC4    ?    Z    ? P      ? 20080421 2020 27.1900 GAU  1.00e-02 -1.00e+00 -1.00e+00 -1.00e+00
MC5    ?    Z    ? P      ? 20080421 2020 27.1100 GAU  1.00e-02 -1.00e+00 -1.00e+00 -1.00e+00
