MC1    ?    Z    ? P      ? 20080421 2125 34.2800 GAU  1.00e-02 -1.00e+00 -1.00e+00 -1.00e+00
MC2    ?    Z    ? P      ? 20080421 2125 34.7900 GAU  1.00e-02 -1.00e+00 -1.00e+00 -1.00e+00
MC4    ?    Z    ? P      ? 20080421 2125 34.9000 GAU  1.00e-02 -1.00e+00 -1.00e+00 -1.00e+00
MC5    ?    Z    ? P      ? 20080421 2125 34.7800 GAU  1.00e-02 -1.00e+00 -1.00e+00 -1.00e+00
