MC1    ?    Z    ? P      ? 20080421 2132 36.0400 GAU  1.00e-02 -1.00e+00 -1.00e+00 -1.00e+00
MC2    ?    Z    ? P      ? 20080421 2132 36.5700 GAU  1.00e-02 -1.00e+00 -1.00e+00 -1.00e+00
MC4    ?    Z    ? P      ? 20080421 2132 36.5200 GAU  1.00e-02 -1.00e+00 -1.00e+00 -1.00e+00
MC5    ?    Z    ? P      ? 20080421 2132 36.4400 GAU  1.00e-02 -1.00e+00 -1.00e+00 -1.00e+00
