MC1    ?    Z    ? P      ? 20080421 2230 34.2300 GAU  1.00e-02 -1.00e+00 -1.00e+00 -1.00e+00
MC2    ?    Z    ? P      ? 20080421 2230 34.8200 GAU  1.00e-02 -1.00e+00 -1.00e+00 -1.00e+00
MC4    ?    Z    ? P      ? 20080421 2230 34.8100 GAU  1.00e-02 -1.00e+00 -1.00e+00 -1.00e+00
MC5    ?    Z    ? P      ? 20080421 2230 34.8600 GAU  1.00e-02 -1.00e+00 -1.00e+00 -1.00e+00
