MC1    ?    Z    ? P      ? 20080421 0405 57.4900 GAU  1.00e-02 -1.00e+00 -1.00e+00 -1.00e+00
MC2    ?    Z    ? P      ? 20080421 0405 57.9800 GAU  1.00e-02 -1.00e+00 -1.00e+00 -1.00e+00
MC4    ?    Z    ? P      ? 20080421 0405 58.0600 GAU  1.00e-02 -1.00e+00 -1.00e+00 -1.00e+00
MC5    ?    Z    ? P      ? 20080421 0405 57.8600 GAU  1.00e-02 -1.00e+00 -1.00e+00 -1.00e+00
