MC1    ?    Z    ? P      ? 20080421 0411 23.0000 GAU  1.00e-02 -1.00e+00 -1.00e+00 -1.00e+00
MC2    ?    Z    ? P      ? 20080421 0411 23.4600 GAU  1.00e-02 -1.00e+00 -1.00e+00 -1.00e+00
MC4    ?    Z    ? P      ? 20080421 0411 23.3800 GAU  1.00e-02 -1.00e+00 -1.00e+00 -1.00e+00
MC5    ?    Z    ? P      ? 20080421 0411 23.2700 GAU  1.00e-02 -1.00e+00 -1.00e+00 -1.00e+00
