MC1    ?    Z    ? P      ? 20080421 0433 38.3000 GAU  1.00e-02 -1.00e+00 -1.00e+00 -1.00e+00
MC2    ?    Z    ? P      ? 20080421 0433 39.0000 GAU  1.00e-02 -1.00e+00 -1.00e+00 -1.00e+00
MC4    ?    Z    ? P      ? 20080421 0433 39.0000 GAU  1.00e-02 -1.00e+00 -1.00e+00 -1.00e+00
MC5    ?    Z    ? P      ? 20080421 0433 39.0000 GAU  1.00e-02 -1.00e+00 -1.00e+00 -1.00e+00
